NORAD_CAT_ID,OBJECT_NAME,OBJECT_TYPE,EPOCH,MEAN_MOTION,ECCENTRICITY,INCLINATION,RA_OF_ASC_NODE,ARG_OF_PERICENTER,MEAN_ANOMALY,BSTAR,MEAN_MOTION_DOT,MEAN_MOTION_DDOT,TLE_LINE0,TLE_LINE1,TLE_LINE2,SEMIMAJOR_AXIS,PERIOD,APOGEE,PERIGEE,DECAYED
54207.0,STARLINK-5262,PAYLOAD,2023-11-06 22:08:55,15.08862026,0.0001362,53.217,226.4378,118.5749,241.538,-0.00012338,-2.252e-05,0.0,0 STARLINK-5262,1 54207U 22141BC  23310.92286556 -.00002252  00000-0 -12338-3 0  9993,2 54207  53.2170 226.4378 0001362 118.5749 241.5380 15.08862026 57112,6917.813,95.436,540.62,538.736,0.0
54207.0,STARLINK-5262,PAYLOAD,2023-11-07 02:55:05,15.08767585,0.0001127,53.2164,225.5457,89.4912,270.621,-0.00038736,-6.435e-05,0.0,0 STARLINK-5262,1 54207U 22141BC  23311.12159540 -.00006435  00000-0 -38736-3 0  9995,2 54207  53.2164 225.5457 0001127  89.4912 270.6210 15.08767585 57377,6918.102,95.442,540.746,539.187,0.0
54207.0,STARLINK-5262,PAYLOAD,2023-11-07 10:52:02,15.08792305,0.0001312,53.216,224.0606,98.4809,261.6331,0.0015084,0.00023768,0.0,0 STARLINK-5262,1 54207U 22141BC  23311.45281199  .00023768  00000-0  15084-2 0  9993,2 54207  53.2160 224.0606 0001312  98.4809 261.6331 15.08792305 57422,6918.026,95.441,540.799,538.984,0.0
54207.0,STARLINK-5262,PAYLOAD,2023-11-08 01:10:32,15.08833536,0.000127,53.2161,221.383,99.3829,260.7307,0.0024058,0.00038201,0.0,0 STARLINK-5262,1 54207U 22141BC  23312.04898339  .00038201  00000-0  24058-2 0  9998,2 54207  53.2161 221.3830 0001270  99.3829 260.7307 15.08833536 57512,6917.9,95.438,540.644,538.887,0.0
54207.0,STARLINK-5262,PAYLOAD,2023-11-08 21:50:32,15.08835818,0.000265,53.2171,217.5214,130.7434,229.3788,-0.00027193,-4.613e-05,0.0,0 STARLINK-5262,1 54207U 22141BC  23312.91010374 -.00004613  00000-0 -27193-3 0  9995,2 54207  53.2171 217.5214 0002650 130.7434 229.3788 15.08835818 57419,6917.893,95.438,541.591,537.925,0.0
54207.0,STARLINK-5262,PAYLOAD,2023-11-09 02:36:42,15.08868796,0.0001317,53.2164,216.6249,96.5658,263.5485,0.0015549,0.00024564,0.0,0 STARLINK-5262,1 54207U 22141BC  23313.10882021  .00024564  00000-0  15549-2 0  9999,2 54207  53.2164 216.6249 0001317  96.5658 263.5485 15.08868796 57678,6917.792,95.436,540.568,538.746,0.0
54207.0,STARLINK-5262,PAYLOAD,2023-11-09 21:41:19,15.0885307,0.0001378,53.216,213.0559,109.0845,251.0297,0.0013017,0.00020497,0.0,0 STARLINK-5262,1 54207U 22141BC  23313.90370104  .00020497  00000-0  13017-2 0  9990,2 54207  53.2160 213.0559 0001378 109.0845 251.0297 15.08853070 57564,6917.84,95.437,540.659,538.752,0.0
54207.0,STARLINK-5262,PAYLOAD,2023-11-10 00:52:06,15.08847656,0.0001584,53.2167,212.4613,81.9592,278.158,0.0005536,8.535e-05,0.0,0 STARLINK-5262,1 54207U 22141BC  23314.03618241  .00008535  00000-0  55360-3 0  9999,2 54207  53.2167 212.4613 0001584  81.9592 278.1580 15.08847656 57817,6917.857,95.437,540.818,538.626,0.0
54207.0,STARLINK-5262,PAYLOAD,2023-11-10 10:24:25,15.08854986,0.0001531,53.2159,210.6795,104.9499,255.1662,0.00019883,2.879e-05,0.0,0 STARLINK-5262,1 54207U 22141BC  23314.43362275  .00002879  00000-0  19883-3 0  9991,2 54207  53.2159 210.6795 0001531 104.9499 255.1662 15.08854986 57644,6917.835,95.437,540.759,538.64,0.0
54207.0,STARLINK-5262,PAYLOAD,2023-11-10 21:32:06,15.08835145,0.0001534,53.216,208.5964,96.4718,263.6449,0.00047822,7.33e-05,0.0,0 STARLINK-5262,1 54207U 22141BC  23314.89730296  .00007330  00000-0  47822-3 0  9994,2 54207  53.2160 208.5964 0001534  96.4718 263.6449 15.08835145 57713,6917.895,95.438,540.821,538.699,0.0
54207.0,STARLINK-5262,PAYLOAD,2023-11-11 00:42:53,15.08843518,0.0001516,53.2165,208.0035,95.1086,265.0079,0.00013622,1.881e-05,0.0,0 STARLINK-5262,1 54207U 22141BC  23315.02978185  .00001881  00000-0  13622-3 0  9997,2 54207  53.2165 208.0035 0001516  95.1086 265.0079 15.08843518 57961,6917.87,95.437,540.783,538.686,0.0
54207.0,STARLINK-5262,PAYLOAD,2023-11-11 10:15:12,15.08839948,0.0001479,53.2167,206.216,93.739,266.3772,3.3068e-05,2.38e-06,0.0,0 STARLINK-5262,1 54207U 22141BC  23315.42722346  .00000238  00000-0  33068-4 0  9999,2 54207  53.2167 206.2160 0001479  93.7390 266.3772 15.08839948 57799,6917.881,95.438,540.769,538.722,0.0
54207.0,STARLINK-5262,PAYLOAD,2023-11-11 16:36:44,15.08838267,0.0001551,53.2166,205.0315,90.7679,269.3491,9.1616e-05,1.17e-05,0.0,0 STARLINK-5262,1 54207U 22141BC  23315.69218672  .00001170  00000-0  91616-4 0  9999,2 54207  53.2166 205.0315 0001551  90.7679 269.3491 15.08838267 58060,6917.886,95.438,540.824,538.678,0.0
54207.0,STARLINK-5262,PAYLOAD,2023-11-11 21:22:54,15.08834264,0.0001598,53.2168,204.1375,98.8619,261.2554,-1.3715e-05,-5.06e-06,0.0,0 STARLINK-5262,1 54207U 22141BC  23315.89090845 -.00000506  00000-0 -13715-4 0  9999,2 54207  53.2168 204.1375 0001598  98.8619 261.2554 15.08834264 57863,6917.898,95.438,540.868,538.657,0.0
54207.0,STARLINK-5262,PAYLOAD,2023-11-12 10:05:59,15.08836543,0.0001425,53.2161,201.7567,98.2448,261.8706,6.6617e-05,7.72e-06,0.0,0 STARLINK-5262,1 54207U 22141BC  23316.42082976  .00000772  00000-0  66617-4 0  9997,2 54207  53.2161 201.7567 0001425  98.2448 261.8706 15.08836543 57941,6917.891,95.438,540.742,538.77,0.0
54207.0,STARLINK-5262,PAYLOAD,2023-11-12 19:38:18,15.08841483,0.0001338,53.2152,199.9726,97.0632,263.0513,0.00018049,2.586e-05,0.0,0 STARLINK-5262,1 54207U 22141BC  23316.81826819  .00002586  00000-0  18049-3 0  9992,2 54207  53.2152 199.9726 0001338  97.0632 263.0513 15.08841483 58233,6917.876,95.437,540.666,538.815,0.0
54207.0,STARLINK-5262,PAYLOAD,2023-11-12 21:13:41,15.08842903,0.000138,53.2155,199.675,97.6109,262.504,0.00019359,2.795e-05,0.0,0 STARLINK-5262,1 54207U 22141BC  23316.88450741  .00002795  00000-0  19359-3 0  9993,2 54207  53.2155 199.6750 0001380  97.6109 262.5040 15.08842903 58015,6917.872,95.437,540.691,538.782,0.0
54207.0,STARLINK-5262,PAYLOAD,2023-11-12 22:49:04,15.08846507,0.0001347,53.2154,199.3779,100.4431,259.6713,0.00015774,2.224e-05,0.0,0 STARLINK-5262,1 54207U 22141BC  23316.95074557  .00002224  00000-0  15774-3 0  9992,2 54207  53.2154 199.3779 0001347 100.4431 259.6713 15.08846507 58025,6917.86,95.437,540.657,538.794,0.0
54207.0,STARLINK-5262,PAYLOAD,2023-11-13 22:39:51,15.08844713,0.0001372,53.2158,194.9167,96.6958,263.419,0.0002474,3.652e-05,0.0,0 STARLINK-5262,1 54207U 22141BC  23317.94434650  .00003652  00000-0  24740-3 0  9995,2 54207  53.2158 194.9167 0001372  96.6958 263.4190 15.08844713 58174,6917.866,95.437,540.68,538.782,0.0
54207.0,STARLINK-5262,PAYLOAD,2023-11-14 01:50:37,15.0884823,0.0001427,53.2155,194.3217,96.965,263.1504,0.00019064,2.748e-05,0.0,0 STARLINK-5262,1 54207U 22141BC  23318.07682420  .00002748  00000-0  19064-3 0  9998,2 54207  53.2155 194.3217 0001427  96.9650 263.1504 15.08848230 58426,6917.855,95.437,540.707,538.733,0.0
54207.0,STARLINK-5262,PAYLOAD,2023-11-15 01:41:26,15.08824227,0.0001477,53.2157,189.8583,94.8851,265.2309,-0.00017984,-3.148e-05,0.0,0 STARLINK-5262,1 54207U 22141BC  23319.07044057 -.00003148  00000-0 -17984-3 0  9993,2 54207  53.2157 189.8583 0001477  94.8851 265.2309 15.08824227 58570,6917.929,95.439,540.815,538.772,0.0
54207.0,STARLINK-5262,PAYLOAD,2023-11-15 22:21:26,15.08834178,0.0001458,53.2176,185.9969,95.8524,264.2635,1.627e-05,-2.9e-07,0.0,0 STARLINK-5262,1 54207U 22141BC  23319.93156199 -.00000029  00000-0  16270-4 0  9991,2 54207  53.2176 185.9969 0001458  95.8524 264.2635 15.08834178 58479,6917.898,95.438,540.772,538.755,0.0
54207.0,STARLINK-5262,PAYLOAD,2023-11-16 01:32:13,15.08826628,0.0001596,53.2174,185.4015,92.1842,267.9333,0.00012856,1.758e-05,0.0,0 STARLINK-5262,1 54207U 22141BC  23320.06404467  .00001758  00000-0  12856-3 0  9995,2 54207  53.2174 185.4015 0001596  92.1842 267.9333 15.08826628 58724,6917.921,95.438,540.89,538.682,0.0
54207.0,STARLINK-5262,PAYLOAD,2023-11-16 15:50:40,15.08842878,0.0001296,53.2176,182.7263,94.3339,265.7801,8.6287e-05,1.086e-05,0.0,0 STARLINK-5262,1 54207U 22141BC  23320.66019406  .00001086  00000-0  86287-4 0  9990,2 54207  53.2176 182.7263 0001296  94.3339 265.7801 15.08842878 58814,6917.872,95.437,540.633,538.84,0.0
54207.0,STARLINK-5262,PAYLOAD,2023-11-16 22:12:13,15.0884459,0.0001268,53.2163,181.5367,97.7048,262.4089,0.0002269,3.326e-05,0.0,0 STARLINK-5262,1 54207U 22141BC  23320.92515266  .00003326  00000-0  22690-3 0  9990,2 54207  53.2163 181.5367 0001268  97.7048 262.4089 15.08844590 58629,6917.866,95.437,540.609,538.854,0.0
54207.0,STARLINK-5262,PAYLOAD,2023-11-17 07:44:32,15.08842926,0.0001361,53.2184,179.7518,87.8316,272.2832,0.00015602,2.196e-05,0.0,0 STARLINK-5262,1 54207U 22141BC  23321.32259598  .00002196  00000-0  15602-3 0  9997,2 54207  53.2184 179.7518 0001361  87.8316 272.2832 15.08842926 58683,6917.871,95.437,540.678,538.795,0.0
54207.0,STARLINK-5262,PAYLOAD,2023-11-17 23:38:23,15.08834898,0.0001766,53.2205,176.7794,89.0705,271.049,0.00018215,2.612e-05,0.0,0 STARLINK-5262,1 54207U 22141BC  23321.98499908  .00002612  00000-0  18215-3 0  9996,2 54207  53.2205 176.7794 0001766  89.0705 271.0490 15.08834898 59019,6917.896,95.438,540.983,538.539,0.0
54207.0,STARLINK-5262,PAYLOAD,2023-11-18 07:35:19,15.08845711,0.0001445,53.2212,175.2927,83.58,276.5356,3.5524e-05,2.78e-06,0.0,0 STARLINK-5262,1 54207U 22141BC  23322.31619630  .00000278  00000-0  35524-4 0  9999,2 54207  53.2212 175.2927 0001445  83.5800 276.5356 15.08845711 58834,6917.863,95.437,540.728,538.728,0.0
54207.0,STARLINK-5262,PAYLOAD,2023-11-18 20:18:24,15.0884978,0.0001076,53.2188,172.9129,84.4595,275.652,-1.2851e-05,-4.92e-06,0.0,0 STARLINK-5262,1 54207U 22141BC  23322.84611117 -.00000492  00000-0 -12851-4 0  9997,2 54207  53.2188 172.9129 0001076  84.4595 275.6520 15.08849780 59143,6917.85,95.437,540.46,538.971,0.0
54207.0,STARLINK-5262,PAYLOAD,2023-11-19 07:26:05,15.08846234,0.0001342,53.2191,170.8307,86.7271,273.3874,3.2417e-05,2.28e-06,0.0,0 STARLINK-5262,1 54207U 22141BC  23323.30978982  .00000228  00000-0  32417-4 0  9990,2 54207  53.2191 170.8307 0001342  86.7271 273.3874 15.08846234 58983,6917.861,95.437,540.655,538.798,0.0
